$$SOE
2460154.500000000, A.D. 2023-Jul-29 00:00:00.0000, 7.119470801739797E+07, 3.249044749763678E+08, 1.082062282321346E+08,
2460161.500000000, A.D. 2023-Aug-05 00:00:00.0000, 6.450156693383858E+07, 3.353298152220767E+08, 1.090507915524243E+08,
2460168.500000000, A.D. 2023-Aug-12 00:00:00.0000, 5.774037424169166E+07, 3.454016588993810E+08, 1.097803420994978E+08,
2460175.500000000, A.D. 2023-Aug-19 00:00:00.0000, 5.092241616891315E+07, 3.551341952359562E+08, 1.104020007111643E+08,
2460182.500000000, A.D. 2023-Aug-26 00:00:00.0000, 4.405767223798771E+07, 3.645406840102812E+08, 1.109222558730997E+08,
2460189.500000000, A.D. 2023-Sep-02 00:00:00.0000, 3.715499535250863E+07, 3.736335264665285E+08, 1.113470354853080E+08,
2460196.500000000, A.D. 2023-Sep-09 00:00:00.0000, 3.022226335701742E+07, 3.824243314619014E+08, 1.116817690150333E+08,
2460203.500000000, A.D. 2023-Sep-16 00:00:00.0000, 2.326650731556349E+07, 3.909239766211956E+08, 1.119314414566382E+08,
2460210.500000000, A.D. 2023-Sep-23 00:00:00.0000, 1.629402101042364E+07, 3.991426648348761E+08, 1.121006402926523E+08,
2460217.500000000, A.D. 2023-Sep-30 00:00:00.0000, 9.310454624289308E+06, 4.070899774731431E+08, 1.121935966000503E+08,
2460224.500000000, A.D. 2023-Oct-07 00:00:00.0000, 2.320892936345743E+06, 4.147749240275697E+08, 1.122142213262266E+08,
2460231.500000000, A.D. 2023-Oct-14 00:00:00.0000, -4.670078740880601E+06, 4.222059851554133E+08, 1.121661370855880E+08,
2460238.500000000, A.D. 2023-Oct-21 00:00:00.0000, -1.165831586571242E+07, 4.293911510369774E+08, 1.120527059194783E+08,
2460245.500000000, A.D. 2023-Oct-28 00:00:00.0000, -1.864006315999110E+07, 4.363379576135702E+08, 1.118770538492147E+08,
2460252.500000000, A.D. 2023-Nov-04 00:00:00.0000, -2.561191031972582E+07, 4.430535202272336E+08, 1.116420927081780E+08,
2460259.500000000, A.D. 2023-Nov-11 00:00:00.0000, -3.257075375583542E+07, 4.495445643369631E+08, 1.113505395568048E+08,
2460266.500000000, A.D. 2023-Nov-18 00:00:00.0000, -3.951376330548752E+07, 4.558174535040429E+08, 1.110049339705872E+08,
2460273.500000000, A.D. 2023-Nov-25 00:00:00.0000, -4.643835313970596E+07, 4.618782149076960E+08, 1.106076534669245E+08,
2460280.500000000, A.D. 2023-Dec-02 00:00:00.0000, -5.334215625010466E+07, 4.677325626000590E+08, 1.101609273001393E+08,
2460287.500000000, A.D. 2023-Dec-09 00:00:00.0000, -6.022300193983545E+07, 4.733859186429035E+08, 1.096668488129159E+08,
2460294.500000000, A.D. 2023-Dec-16 00:00:00.0000, -6.707889561022753E+07, 4.788434323209790E+08, 1.091273864908749E+08,
2460301.500000000, A.D. 2023-Dec-23 00:00:00.0000, -7.390800013760643E+07, 4.841099982838162E+08, 1.085443938926381E+08,
2460308.500000000, A.D. 2023-Dec-30 00:00:00.0000, -8.070861987668881E+07, 4.891902748136011E+08, 1.079196187920648E+08,
2460315.500000000, A.D. 2024-Jan-06 00:00:00.0000, -8.747918880331935E+07, 4.940886999905540E+08, 1.072547116127594E+08,
2460322.500000000, A.D. 2024-Jan-13 00:00:00.0000, -9.421825940363084E+07, 4.988095040665662E+08, 1.065512328121505E+08,
2460329.500000000, A.D. 2024-Jan-20 00:00:00.0000, -1.009244908985137E+08, 5.033567212410148E+08, 1.058106594399369E+08,
2460336.500000000, A.D. 2024-Jan-27 00:00:00.0000, -1.075966386690347E+08, 5.077342015904955E+08, 1.050343911846556E+08,
2460343.500000000, A.D. 2024-Feb-03 00:00:00.0000, -1.142335451701046E+08, 5.119456222923463E+08, 1.042237559349478E+08,
2460350.500000000, A.D. 2024-Feb-10 00:00:00.0000, -1.208341319332876E+08, 5.159944979306504E+08, 1.033800148632800E+08,
2460357.500000000, A.D. 2024-Feb-17 00:00:00.0000, -1.273973924143886E+08, 5.198841899649107E+08, 1.025043670702759E+08,
2460364.500000000, A.D. 2024-Feb-24 00:00:00.0000, -1.339223855578787E+08, 5.236179154414369E+08, 1.015979538318487E+08,
2460371.500000000, A.D. 2024-Mar-02 00:00:00.0000, -1.404082299685853E+08, 5.271987549737635E+08, 1.006618624828864E+08,
2460378.500000000, A.D. 2024-Mar-09 00:00:00.0000, -1.468540984818136E+08, 5.306296599823370E+08, 9.969712995423746E+07,
2460385.500000000, A.D. 2024-Mar-16 00:00:00.0000, -1.532592126754535E+08, 5.339134594387729E+08, 9.870474597361207E+07,
2460392.500000000, A.D. 2024-Mar-23 00:00:00.0000, -1.596228373741874E+08, 5.370528672676095E+08, 9.768565605799010E+07,
2460399.500000000, A.D. 2024-Mar-30 00:00:00.0000, -1.659442773395256E+08, 5.400504904188957E+08, 9.664076452539507E+07,
2460406.500000000, A.D. 2024-Apr-06 00:00:00.0000, -1.722228758472937E+08, 5.429088342791964E+08, 9.557093724888486E+07,
2460413.500000000, A.D. 2024-Apr-13 00:00:00.0000, -1.784580115652688E+08, 5.456303062889889E+08, 9.447700391476902E+07,
2460420.500000000, A.D. 2024-Apr-20 00:00:00.0000, -1.846490946514693E+08, 5.482172204736084E+08, 9.335976010888878E+07,
2460427.500000000, A.D. 2024-Apr-27 00:00:00.0000, -1.907955635611258E+08, 5.506718023540386E+08, 9.221996934003034E+07,
2460434.500000000, A.D. 2024-May-04 00:00:00.0000, -1.968968824486687E+08, 5.529961935587330E+08, 9.105836494901654E+07,
2460441.500000000, A.D. 2024-May-11 00:00:00.0000, -2.029525389037522E+08, 5.551924560571787E+08, 8.987565188605890E+07,
2460448.500000000, A.D. 2024-May-18 00:00:00.0000, -2.089620419192358E+08, 5.572625760576636E+08, 8.867250836221847E+07,
2460455.500000000, A.D. 2024-May-25 00:00:00.0000, -2.149249200484576E+08, 5.592084675813289E+08, 8.744958738266066E+07,
2460462.500000000, A.D. 2024-Jun-01 00:00:00.0000, -2.208407196758603E+08, 5.610319756727322E+08, 8.620751816110402E+07,
2460469.500000000, A.D. 2024-Jun-08 00:00:00.0000, -2.267090031401505E+08, 5.627348792401265E+08, 8.494690739969850E+07,
2460476.500000000, A.D. 2024-Jun-15 00:00:00.0000, -2.325293462975030E+08, 5.643188940853571E+08, 8.366834045016435E+07,
2460483.500000000, A.D. 2024-Jun-22 00:00:00.0000, -2.383013365183233E+08, 5.657856773123138E+08, 8.237238255165929E+07,
2460490.500000000, A.D. 2024-Jun-29 00:00:00.0000, -2.440245732281125E+08, 5.671368313055595E+08, 8.105958019765198E+07,
2460497.500000000, A.D. 2024-Jul-06 00:00:00.0000, -2.496986683373507E+08, 5.683739048181202E+08, 7.973046219296968E+07,
2460504.500000000, A.D. 2024-Jul-13 00:00:00.0000, -2.553232446032911E+08, 5.694983940019711E+08, 7.838554045838293E+07,
2460511.500000000, A.D. 2024-Jul-20 00:00:00.0000, -2.608979339024382E+08, 5.705117445398495E+08, 7.702531086377585E+07,
2460518.500000000, A.D. 2024-Jul-27 00:00:00.0000, -2.664223760630311E+08, 5.714153539281366E+08, 7.565025407616496E+07,
2460525.500000000, A.D. 2024-Aug-03 00:00:00.0000, -2.718962179784940E+08, 5.722105735443170E+08, 7.426083637092841E+07,
2460532.500000000, A.D. 2024-Aug-10 00:00:00.0000, -2.773191128304690E+08, 5.728987105025902E+08, 7.285751039428255E+07,
2460539.500000000, A.D. 2024-Aug-17 00:00:00.0000, -2.826907193688347E+08, 5.734810293268619E+08, 7.144071587764394E+07,
2460546.500000000, A.D. 2024-Aug-24 00:00:00.0000, -2.880107012159843E+08, 5.739587534257351E+08, 7.001088030234212E+07,
2460553.500000000, A.D. 2024-Aug-31 00:00:00.0000, -2.932787260752665E+08, 5.743330663142564E+08, 6.856841950159922E+07,
2460560.500000000, A.D. 2024-Sep-07 00:00:00.0000, -2.984944644740919E+08, 5.746051127144625E+08, 6.711373817889720E+07,
2460567.500000000, A.D. 2024-Sep-14 00:00:00.0000, -3.036575879529809E+08, 5.747760005359213E+08, 6.564723041845471E+07,
2460574.500000000, A.D. 2024-Sep-21 00:00:00.0000, -3.087677687262149E+08, 5.748468041540747E+08, 6.416928040964228E+07,
2460581.500000000, A.D. 2024-Sep-28 00:00:00.0000, -3.138246812981593E+08, 5.748185657633152E+08, 6.268026316810852E+07,
2460588.500000000, A.D. 2024-Oct-05 00:00:00.0000, -3.188280023625559E+08, 5.746922948099074E+08, 6.118054491886035E+07,
2460595.500000000, A.D. 2024-Oct-12 00:00:00.0000, -3.237774093433898E+08, 5.744689684886779E+08, 5.967048341962072E+07,
2460602.500000000, A.D. 2024-Oct-19 00:00:00.0000, -3.286725793261119E+08, 5.741495330367913E+08, 5.815042836455792E+07,
2460609.500000000, A.D. 2024-Oct-26 00:00:00.0000, -3.335131884092392E+08, 5.737349050268005E+08, 5.662072180735272E+07,
2460616.500000000, A.D. 2024-Nov-02 00:00:00.0000, -3.382989112168264E+08, 5.732259725137837E+08, 5.508169856928155E+07,
2460623.500000000, A.D. 2024-Nov-09 00:00:00.0000, -3.430294204732392E+08, 5.726235960603575E+08, 5.353368662649146E+07,
2460630.500000000, A.D. 2024-Nov-16 00:00:00.0000, -3.477043866124924E+08, 5.719286096427741E+08, 5.197700747538930E+07,
2460637.500000000, A.D. 2024-Nov-23 00:00:00.0000, -3.523234773735054E+08, 5.711418213910007E+08, 5.041197646897799E+07,
2460644.500000000, A.D. 2024-Nov-30 00:00:00.0000, -3.568863571713873E+08, 5.702640141227133E+08, 4.883890310270479E+07,
2460651.500000000, A.D. 2024-Dec-07 00:00:00.0000, -3.613926858238987E+08, 5.692959460942333E+08, 4.725809124683636E+07,
2460658.500000000, A.D. 2024-Dec-14 00:00:00.0000, -3.658421173205433E+08, 5.682383531947820E+08, 4.566983948962563E+07,
2460665.500000000, A.D. 2024-Dec-21 00:00:00.0000, -3.702343009515939E+08, 5.670919513457825E+08, 4.407444170356950E+07,
2460672.500000000, A.D. 2024-Dec-28 00:00:00.0000, -3.745688828229042E+08, 5.658574361396922E+08, 4.247218741231748E+07,
2460679.500000000, A.D. 2025-Jan-04 00:00:00.0000, -3.788455051580849E+08, 5.645354820957975E+08, 4.086336191517389E+07,
2460686.500000000, A.D. 2025-Jan-11 00:00:00.0000, -3.830638052085812E+08, 5.631267431946528E+08, 3.924824647287399E+07,
2460693.500000000, A.D. 2025-Jan-18 00:00:00.0000, -3.872234146874649E+08, 5.616318537742647E+08, 3.762711856458700E+07,
2460700.500000000, A.D. 2025-Jan-25 00:00:00.0000, -3.913239594821450E+08, 5.600514293149393E+08, 3.600025215592855E+07,
2460707.500000000, A.D. 2025-Feb-01 00:00:00.0000, -3.953650594552717E+08, 5.583860670838925E+08, 3.436791795900154E+07,
2460714.500000000, A.D. 2025-Feb-08 00:00:00.0000, -3.993463282742747E+08, 5.566363466604038E+08, 3.273038368153140E+07,
2460721.500000000, A.D. 2025-Feb-15 00:00:00.0000, -4.032673732396245E+08, 5.548028303224730E+08, 3.108791426157534E+07,
$$EOE